IRIDIUM 106             
1 41917U 17003A   25034.25058388  .00000677  00000+0  23467-3 0  9990
2 41917  86.3972 297.0233 0002490  85.7293 274.4188 14.34218246421695
IRIDIUM 103             
1 41918U 17003B   25034.23789645  .00000693  00000+0  24020-3 0  9990
2 41918  86.3973 296.9300 0002013 101.7402 258.4020 14.34219033421728
IRIDIUM 109             
1 41919U 17003C   25033.68608730  .00000279  00000+0  92549-4 0  9996
2 41919  86.3974 297.2116 0001831  84.5544 275.5861 14.34214152421608
IRIDIUM 102             
1 41920U 17003D   25034.21252669  .00000687  00000+0  23823-3 0  9995
2 41920  86.3970 296.9259 0002134  82.4497 277.6941 14.34217420421761
IRIDIUM 105             
1 41921U 17003E   25034.18325429  .00000601  00000+0  20744-3 0  9992
2 41921  86.3931 265.3583 0002957  65.3387 294.8117 14.34207724423618
IRIDIUM 104             
1 41922U 17003F   25033.59729193  .00000789  00000+0  27469-3 0  9991
2 41922  86.3974 297.2177 0001641  89.9025 270.2359 14.34215649421663
IRIDIUM 114             
1 41923U 17003G   25034.23155132  .00000606  00000+0  20947-3 0  9992
2 41923  86.3972 296.9381 0002075  91.4783 268.6651 14.34219636421752
IRIDIUM 108             
1 41924U 17003H   25033.49238979  .00000627  00000+0  21668-3 0  9995
2 41924  86.3931 265.5529 0002358  83.5926 276.5538 14.34214519423488
