<?xml version="1.0" encoding="UTF-8"?>
<ndm xmlns:xsi="http://www.w3.org/2001/XMLSchema-instance" xsi:noNamespaceSchemaLocation="https://sanaregistry.org/r/ndmxml_unqualified/ndmxml-2.0.0-master-2.0.xsd">
<omm id="CCSDS_OMM_VERS" version="2.0">
<header><CREATION_DATE/><ORIGINATOR/></header><body><segment><metadata><OBJECT_NAME>IRIDIUM 106</OBJECT_NAME><OBJECT_ID>2017-003A</OBJECT_ID><CENTER_NAME>EARTH</CENTER_NAME><REF_FRAME>TEME</REF_FRAME><TIME_SYSTEM>UTC</TIME_SYSTEM><MEAN_ELEMENT_THEORY>SGP4</MEAN_ELEMENT_THEORY></metadata><data><meanElements><EPOCH>2025-02-03T06:00:50.447232</EPOCH><MEAN_MOTION>14.34218246</MEAN_MOTION><ECCENTRICITY>.000249</ECCENTRICITY><INCLINATION>86.3972</INCLINATION><RA_OF_ASC_NODE>297.0233</RA_OF_ASC_NODE><ARG_OF_PERICENTER>85.7293</ARG_OF_PERICENTER><MEAN_ANOMALY>274.4188</MEAN_ANOMALY></meanElements><tleParameters><EPHEMERIS_TYPE>0</EPHEMERIS_TYPE><CLASSIFICATION_TYPE>U</CLASSIFICATION_TYPE><NORAD_CAT_ID>41917</NORAD_CAT_ID><ELEMENT_SET_NO>999</ELEMENT_SET_NO><REV_AT_EPOCH>42169</REV_AT_EPOCH><BSTAR>.23467E-3</BSTAR><MEAN_MOTION_DOT>.677E-5</MEAN_MOTION_DOT><MEAN_MOTION_DDOT>0</MEAN_MOTION_DDOT></tleParameters></data></segment></body></omm>
<omm id="CCSDS_OMM_VERS" version="2.0">
<header><CREATION_DATE/><ORIGINATOR/></header><body><segment><metadata><OBJECT_NAME>IRIDIUM 103</OBJECT_NAME><OBJECT_ID>2017-003B</OBJECT_ID><CENTER_NAME>EARTH</CENTER_NAME><REF_FRAME>TEME</REF_FRAME><TIME_SYSTEM>UTC</TIME_SYSTEM><MEAN_ELEMENT_THEORY>SGP4</MEAN_ELEMENT_THEORY></metadata><data><meanElements><EPOCH>2025-02-03T05:42:34.253280</EPOCH><MEAN_MOTION>14.34219033</MEAN_MOTION><ECCENTRICITY>.0002013</ECCENTRICITY><INCLINATION>86.3973</INCLINATION><RA_OF_ASC_NODE>296.9300</RA_OF_ASC_NODE><ARG_OF_PERICENTER>101.7402</ARG_OF_PERICENTER><MEAN_ANOMALY>258.4020</MEAN_ANOMALY></meanElements><tleParameters><EPHEMERIS_TYPE>0</EPHEMERIS_TYPE><CLASSIFICATION_TYPE>U</CLASSIFICATION_TYPE><NORAD_CAT_ID>41918</NORAD_CAT_ID><ELEMENT_SET_NO>999</ELEMENT_SET_NO><REV_AT_EPOCH>42172</REV_AT_EPOCH><BSTAR>.2402E-3</BSTAR><MEAN_MOTION_DOT>.693E-5</MEAN_MOTION_DOT><MEAN_MOTION_DDOT>0</MEAN_MOTION_DDOT></tleParameters></data></segment></body></omm>
<omm id="CCSDS_OMM_VERS" version="2.0">
<header><CREATION_DATE/><ORIGINATOR/></header><body><segment><metadata><OBJECT_NAME>IRIDIUM 109</OBJECT_NAME><OBJECT_ID>2017-003C</OBJECT_ID><CENTER_NAME>EARTH</CENTER_NAME><REF_FRAME>TEME</REF_FRAME><TIME_SYSTEM>UTC</TIME_SYSTEM><MEAN_ELEMENT_THEORY>SGP4</MEAN_ELEMENT_THEORY></metadata><data><meanElements><EPOCH>2025-02-02T16:27:57.942720</EPOCH><MEAN_MOTION>14.34214152</MEAN_MOTION><ECCENTRICITY>.0001831</ECCENTRICITY><INCLINATION>86.3974</INCLINATION><RA_OF_ASC_NODE>297.2116</RA_OF_ASC_NODE><ARG_OF_PERICENTER>84.5544</ARG_OF_PERICENTER><MEAN_ANOMALY>275.5861</MEAN_ANOMALY></meanElements><tleParameters><EPHEMERIS_TYPE>0</EPHEMERIS_TYPE><CLASSIFICATION_TYPE>U</CLASSIFICATION_TYPE><NORAD_CAT_ID>41919</NORAD_CAT_ID><ELEMENT_SET_NO>999</ELEMENT_SET_NO><REV_AT_EPOCH>42160</REV_AT_EPOCH><BSTAR>.92549E-4</BSTAR><MEAN_MOTION_DOT>.279E-5</MEAN_MOTION_DOT><MEAN_MOTION_DDOT>0</MEAN_MOTION_DDOT></tleParameters></data></segment></body></omm>
<omm id="CCSDS_OMM_VERS" version="2.0">
<header><CREATION_DATE/><ORIGINATOR/></header><body><segment><metadata><OBJECT_NAME>IRIDIUM 102</OBJECT_NAME><OBJECT_ID>2017-003D</OBJECT_ID><CENTER_NAME>EARTH</CENTER_NAME><REF_FRAME>TEME</REF_FRAME><TIME_SYSTEM>UTC</TIME_SYSTEM><MEAN_ELEMENT_THEORY>SGP4</MEAN_ELEMENT_THEORY></metadata><data><meanElements><EPOCH>2025-02-03T05:06:02.306016</EPOCH><MEAN_MOTION>14.34217420</MEAN_MOTION><ECCENTRICITY>.0002134</ECCENTRICITY><INCLINATION>86.3970</INCLINATION><RA_OF_ASC_NODE>296.9259</RA_OF_ASC_NODE><ARG_OF_PERICENTER>82.4497</ARG_OF_PERICENTER><MEAN_ANOMALY>277.6941</MEAN_ANOMALY></meanElements><tleParameters><EPHEMERIS_TYPE>0</EPHEMERIS_TYPE><CLASSIFICATION_TYPE>U</CLASSIFICATION_TYPE><NORAD_CAT_ID>41920</NORAD_CAT_ID><ELEMENT_SET_NO>999</ELEMENT_SET_NO><REV_AT_EPOCH>42176</REV_AT_EPOCH><BSTAR>.23823E-3</BSTAR><MEAN_MOTION_DOT>.687E-5</MEAN_MOTION_DOT><MEAN_MOTION_DDOT>0</MEAN_MOTION_DDOT></tleParameters></data></segment></body></omm>
<omm id="CCSDS_OMM_VERS" version="2.0">
<header><CREATION_DATE/><ORIGINATOR/></header><body><segment><metadata><OBJECT_NAME>IRIDIUM 105</OBJECT_NAME><OBJECT_ID>2017-003E</OBJECT_ID><CENTER_NAME>EARTH</CENTER_NAME><REF_FRAME>TEME</REF_FRAME><TIME_SYSTEM>UTC</TIME_SYSTEM><MEAN_ELEMENT_THEORY>SGP4</MEAN_ELEMENT_THEORY></metadata><data><meanElements><EPOCH>2025-02-03T04:23:53.170656</EPOCH><MEAN_MOTION>14.34207724</MEAN_MOTION><ECCENTRICITY>.0002957</ECCENTRICITY><INCLINATION>86.3931</INCLINATION><RA_OF_ASC_NODE>265.3583</RA_OF_ASC_NODE><ARG_OF_PERICENTER>65.3387</ARG_OF_PERICENTER><MEAN_ANOMALY>294.8117</MEAN_ANOMALY></meanElements><tleParameters><EPHEMERIS_TYPE>0</EPHEMERIS_TYPE><CLASSIFICATION_TYPE>U</CLASSIFICATION_TYPE><NORAD_CAT_ID>41921</NORAD_CAT_ID><ELEMENT_SET_NO>999</ELEMENT_SET_NO><REV_AT_EPOCH>42361</REV_AT_EPOCH><BSTAR>.20744E-3</BSTAR><MEAN_MOTION_DOT>.601E-5</MEAN_MOTION_DOT><MEAN_MOTION_DDOT>0</MEAN_MOTION_DDOT></tleParameters></data></segment></body></omm>
<omm id="CCSDS_OMM_VERS" version="2.0">
<header><CREATION_DATE/><ORIGINATOR/></header><body><segment><metadata><OBJECT_NAME>IRIDIUM 104</OBJECT_NAME><OBJECT_ID>2017-003F</OBJECT_ID><CENTER_NAME>EARTH</CENTER_NAME><REF_FRAME>TEME</REF_FRAME><TIME_SYSTEM>UTC</TIME_SYSTEM><MEAN_ELEMENT_THEORY>SGP4</MEAN_ELEMENT_THEORY></metadata><data><meanElements><EPOCH>2025-02-02T14:20:06.022752</EPOCH><MEAN_MOTION>14.34215649</MEAN_MOTION><ECCENTRICITY>.0001641</ECCENTRICITY><INCLINATION>86.3974</INCLINATION><RA_OF_ASC_NODE>297.2177</RA_OF_ASC_NODE><ARG_OF_PERICENTER>89.9025</ARG_OF_PERICENTER><MEAN_ANOMALY>270.2359</MEAN_ANOMALY></meanElements><tleParameters><EPHEMERIS_TYPE>0</EPHEMERIS_TYPE><CLASSIFICATION_TYPE>U</CLASSIFICATION_TYPE><NORAD_CAT_ID>41922</NORAD_CAT_ID><ELEMENT_SET_NO>999</ELEMENT_SET_NO><REV_AT_EPOCH>42166</REV_AT_EPOCH><BSTAR>.27469E-3</BSTAR><MEAN_MOTION_DOT>.789E-5</MEAN_MOTION_DOT><MEAN_MOTION_DDOT>0</MEAN_MOTION_DDOT></tleParameters></data></segment></body></omm>
<omm id="CCSDS_OMM_VERS" version="2.0">
<header><CREATION_DATE/><ORIGINATOR/></header><body><segment><metadata><OBJECT_NAME>IRIDIUM 114</OBJECT_NAME><OBJECT_ID>2017-003G</OBJECT_ID><CENTER_NAME>EARTH</CENTER_NAME><REF_FRAME>TEME</REF_FRAME><TIME_SYSTEM>UTC</TIME_SYSTEM><MEAN_ELEMENT_THEORY>SGP4</MEAN_ELEMENT_THEORY></metadata><data><meanElements><EPOCH>2025-02-03T05:33:26.034048</EPOCH><MEAN_MOTION>14.34219636</MEAN_MOTION><ECCENTRICITY>.0002075</ECCENTRICITY><INCLINATION>86.3972</INCLINATION><RA_OF_ASC_NODE>296.9381</RA_OF_ASC_NODE><ARG_OF_PERICENTER>91.4783</ARG_OF_PERICENTER><MEAN_ANOMALY>268.6651</MEAN_ANOMALY></meanElements><tleParameters><EPHEMERIS_TYPE>0</EPHEMERIS_TYPE><CLASSIFICATION_TYPE>U</CLASSIFICATION_TYPE><NORAD_CAT_ID>41923</NORAD_CAT_ID><ELEMENT_SET_NO>999</ELEMENT_SET_NO><REV_AT_EPOCH>42175</REV_AT_EPOCH><BSTAR>.20947E-3</BSTAR><MEAN_MOTION_DOT>.606E-5</MEAN_MOTION_DOT><MEAN_MOTION_DDOT>0</MEAN_MOTION_DDOT></tleParameters></data></segment></body></omm>
<omm id="CCSDS_OMM_VERS" version="2.0">
<header><CREATION_DATE/><ORIGINATOR/></header><body><segment><metadata><OBJECT_NAME>IRIDIUM 108</OBJECT_NAME><OBJECT_ID>2017-003H</OBJECT_ID><CENTER_NAME>EARTH</CENTER_NAME><REF_FRAME>TEME</REF_FRAME><TIME_SYSTEM>UTC</TIME_SYSTEM><MEAN_ELEMENT_THEORY>SGP4</MEAN_ELEMENT_THEORY></metadata><data><meanElements><EPOCH>2025-02-02T11:49:02.477856</EPOCH><MEAN_MOTION>14.34214519</MEAN_MOTION><ECCENTRICITY>.0002358</ECCENTRICITY><INCLINATION>86.3931</INCLINATION><RA_OF_ASC_NODE>265.5529</RA_OF_ASC_NODE><ARG_OF_PERICENTER>83.5926</ARG_OF_PERICENTER><MEAN_ANOMALY>276.5538</MEAN_ANOMALY></meanElements><tleParameters><EPHEMERIS_TYPE>0</EPHEMERIS_TYPE><CLASSIFICATION_TYPE>U</CLASSIFICATION_TYPE><NORAD_CAT_ID>41924</NORAD_CAT_ID><ELEMENT_SET_NO>999</ELEMENT_SET_NO><REV_AT_EPOCH>42348</REV_AT_EPOCH><BSTAR>.21668E-3</BSTAR><MEAN_MOTION_DOT>.627E-5</MEAN_MOTION_DOT><MEAN_MOTION_DDOT>0</MEAN_MOTION_DDOT></tleParameters></data></segment></body></omm>

</ndm>
